#dP2019  5 14  0  0  0.00000000      96 __u+U IGS08 FIT  IAC
## 2053 172800.00000000   900.00000000 58617 0.0000000000000
+   96   C01C02C04C05C06C07C08C09C10C11C12C13C14C16E01E02E03
+        E04E05E07E08E09E11E12E13E14E15E18E19E21E24E25E26E27
+        E30E31E33E36G01G02G03G04G05G06G07G08G09G10G11G12G13
+        G14G15G16G17G18G19G20G21G22G23G24G25G26G27G28G29G30
+        G31G32J01J02J03R01R02R03R04R05R07R08R09R10R11R13R14
+        R15R16R17R18R19R20R21R22R23R24R26  0  0  0  0  0  0
++        12 12 12 12  8  8  9  8  8  7  7  8  8  8  5  4  5
++         4  4  4  4  4  5  5  4  4  4  4  5  5  4  4  5  4
++         4  5  5  5  3  3  3  4  3  3  3  3  3  3  3  3  3
++         3  3  3  3  3  3  3  3  3  3  3  3  3  3  3  3  3
++         3  3  9  9  9  5  5  5  5  5  5  5  5  5  5  6  5
++         5  6  5  5  6  6  5  5  5  6  8  0  0  0  0  0  0
%c M  cc GPS ccc cccc cccc cccc cccc ccccc ccccc ccccc ccccc
%c cc cc ccc ccc cccc cccc cccc cccc ccccc ccccc ccccc ccccc
%f  1.2500000  1.025000000  0.00000000000  0.000000000000000
%f  0.0000000  0.000000000  0.00000000000  0.000000000000000
%i    0    0    0    0      0      0      0      0         0
%i    0    0    0    0      0      0      0      0         0
/* INFORMATION & ANALYSIS CENTER (IAC)            FINAL DATA
/* S/V CLOCKS ARE ALIGNED TO GPS & GLONASS TIME RESPECTIVELY
/* USING THE BROADCAST EPHEMERIS                            
/* PCV:IGS14_2045 OL/AL:FES2004  NONE     YN ORB:CoN CLK:CoN
*  2019 05 14  3 30  0.00000000
PC01 -32318.009975  27060.359249    979.154359    581.477648
PC02   4338.298272  41909.345002  -1266.429982    161.118266
PC04 -39599.120974  14485.881307    373.956565   -227.335267
PC05  21796.838026  36026.244868   -966.899312   -122.229690
PC06 -10237.064360  35185.801808 -20195.575488    832.833481
PC07 -15115.299786  21815.066678  32832.255791    -14.096964
PC08 -25696.710870  30745.484696 -13477.063833    157.136293
PC09    428.252385  41735.224944  -4317.015824    761.424271
PC10   2085.287408  27194.304260  32360.255012   -749.814347
PC11  10524.512367 -25490.722690  -4023.580721   -151.051745
PC12  16022.577955  -1289.085718 -22739.904407    665.246933
PC13 -11687.935908  31446.232421 -25643.950238   -711.557572
PC14  13404.967362  -9150.514129  22767.486882    617.895906
PC16  -6896.464578  37698.691710 -17340.538751   -744.999090
PE01  29280.525456   4341.819428   -350.372575   -604.189155
PE02 -29284.425959  -4317.957361    385.600283     60.151223
PE03 -19149.458988  -8019.673819 -21085.967884   -165.847220
PE04  12551.657987 -13384.336184  23238.524446   -281.343028
PE05 -14578.675672 -24910.118460  -6553.766423   -484.168621
PE07   1525.295973  27142.433543 -11709.084937   -187.186485
PE08 -12239.074912  13543.973797 -23293.761610   6356.578075
PE09  -1796.018822 -27096.253811  11772.964071   6440.341411
PE11   9263.986390 -25176.797369  12533.278177   5695.110449
PE12  21114.169780 -19701.995031  -6552.904037   6397.454829
PE13  -9284.565204  25200.887067 -12426.036322    387.015564
PE14   6894.206728  26521.013714  -9728.465725   -565.880483
PE15 -20890.213237  20009.046116   6261.358921    910.522447
PE18   4406.153384 -27677.831373  -3383.387067   -663.583929
PE19  19139.549168  10095.474998  20207.168749     -6.442617
PE21  19042.599992  14532.003409  17385.302930   -533.853636
PE24   2076.568186 -16233.908308 -24679.582045   6082.565211
PE25 -18976.971166 -14556.146628 -17437.055432   1805.162308
PE26   7802.746896  15797.681579 -23779.738837   4572.281299
PE27  -2412.439550  16124.254149  24703.012059    470.405782
PE30 -22237.697900   8312.540726  17669.504507   4873.828808
PE31  22404.746849  -8246.763903 -17502.162936   -464.721561
PE33  20298.676645  -3109.843313 -21316.511123   -470.228771
PE36  -7792.282727 -15651.061405  23892.435968    712.492923
PG01  -6743.751685  18299.254119 -18058.409730    -15.800904
PG02  21713.478261 -15132.831441      4.736845   -212.584820
PG03   2839.759371  17397.950688 -19932.597857    187.961135
PG04  11362.192831  17495.026248  16455.423655    159.956776
PG05  16936.303110  -6785.267708  19252.813766      0.923137
PG06  23139.203694  -4397.485112 -12264.178917    206.143404
PG07   8009.016922  13205.123287  21866.111214    -23.784189
PG08  -6136.765162  23651.971333  10185.605617   -143.493418
PG09   8814.006824  22360.092358  11253.077596    411.735996
PG10 -24162.881273 -10896.609875  -2866.750613     46.997051
PG11  -6360.819309  24063.941685 -10140.965920   -607.181237
PG12   -709.678314 -16880.061260 -20754.836279    242.677985
PG13  12597.983908 -17202.035982  15698.329792    -63.757176
PG14 -15110.347364   1335.076677 -21472.939447    -80.579069
PG15   3573.355475 -24596.699873   8532.132905   -313.137942
PG16 -16541.978009   5063.612586  20091.162359    -39.899997
PG17  13541.393824   8613.275622 -20778.150955     54.366225
PG18 -14463.365534  19416.917526 -11251.487061     52.932889
PG19  14935.049386   -308.365811 -22265.665211   -319.275532
PG20 -21430.973029 -14162.615800   6948.277817    524.698819
PG21 -13161.526836  -9802.267082  21666.170444   -193.281264
PG22  -5095.460737  15047.647284 -21054.986522   -700.475256
PG23   1265.267239  26305.018066    256.058033   -186.315296
PG24   9233.112174 -19695.888997 -15170.183649    -66.071580
PG25 -13613.349065 -18400.469436 -13902.013256   -755.993636
PG26 -23102.250001  -1355.745900  13168.841547    200.783950
PG27 -12032.842777  14591.457237  18412.706299   -131.318906
PG28  22569.151347  13682.705698  -1846.931610    767.826533
PG29  -3981.046976 -25116.261313   7628.987737    202.206023
PG30  18092.012027   5604.327449  18714.127135   -104.193567
PG31 -24001.290463   4994.473067 -10759.556125     38.340870
PG32 -15044.832290  -5663.008780 -21102.257137    -88.773682
PJ01 -22243.925543  19115.851170 -25666.953879   -306.031024
PJ02 -29200.312516  25132.665369  21945.509953      3.111516
PJ03 -27736.110623  26353.762471  22722.593054      0.089047
PR01   2332.841705 -14507.909625  20853.713263     43.759128
PR02 -11585.085317 -22182.472197   5120.130567    368.444132
PR03 -16746.223573 -14916.744894 -12149.559920     -4.881114
PR04 -11846.793971   1536.756700 -22517.366560    306.170586
PR05   -566.101196  16055.932552 -19790.199105     28.053315
PR07  16740.590717  14445.304578  12727.355398    -19.950243
PR08  12238.019782   -844.017895  22421.700003     17.776158
PR09  10333.252970   9764.940165  21205.925549     69.554725
PR10  22718.177370   4047.450140  10937.449922     49.730884
PR11  23996.118954  -4833.318496  -7251.390823    -66.037340
PR13  -8434.665812  -9832.395941 -21993.256938    -23.612450
PR14 -22753.778141  -3924.240598 -10817.450563     38.914860
PR15 -24284.124368   4382.601060   6478.608489    101.938723
PR16 -11665.536532  10545.838120  20095.447964      9.542872
PR17  -9307.091887  -5146.788589  23192.096367    227.667656
PR18 -14723.488452  11662.366642  17237.882591     -6.927501
PR19 -12799.680446  21976.559346   1937.025266    -30.544732
PR20  -2301.041966  19544.733998 -16191.234106   -378.001487
PR21   9533.624623   4520.720267 -23223.939076    -47.905502
PR22  14962.366239 -14051.442558 -15230.250255    -19.051158
PR23  10173.287885 -23144.661400   3416.466377    227.815738
PR24    807.485764 -18649.677677  17369.440400   -180.422412
PR26  -3612.464084  20954.209658 -14094.964921  -4614.788568
EOF
